ONEWEB-0529             
1 54145U 22138AJ  26167.74286110 -.00000112  00000+0 -31175-3 0  9991
2 54145  87.9170 305.0626 0001638 102.8223 257.3093 13.19723576176761
ONEWEB-0531             
1 54146U 22138AK  26167.85425095  .00000092  00000+0  19435-3 0  9991
2 54146  87.9192 274.5015 0002826 103.8403 256.3045 13.20771586179269
ONEWEB-0535             
1 54147U 22138AL  26167.85184419 -.00000024  00000+0 -91504-4 0  9999
2 54147  87.9178 305.0248 0002188  94.9979 265.1404 13.19725117176790
ONEWEB-0536             
1 54148U 22138AM  26167.84077389 -.00000012  00000+0 -60336-4 0  9992
2 54148  87.9182 274.5265 0002963 107.3705 252.7753 13.20770910179258
ONEWEB-0527             
1 54642U 22166A   26167.72244581  .00000021  00000+0  19333-4 0  9998
2 54642  87.9253 244.0899 0001970 100.0517 260.0840 13.21823274171477
ONEWEB-0528             
1 54643U 22166B   26167.72328811  .00000004  00000+0 -21503-4 0  9992
2 54643  87.9256 244.0920 0001852 103.5274 256.6067 13.21823973171482
ONEWEB-0539             
1 54644U 22166C   26167.68545625  .00000074  00000+0  14858-3 0  9992
2 54644  87.9259 244.0710 0001950  92.6256 267.5101 13.21827051171470
ONEWEB-0540             
1 54645U 22166D   26167.69231881  .00000041  00000+0  68880-4 0  9999
2 54645  87.9255 244.1001 0002041  95.4522 264.6845 13.21827142171463
ONEWEB-0542             
1 54646U 22166E   26167.69553905  .00000078  00000+0  15775-3 0  9998
2 54646  87.9263 244.0677 0002001  90.4051 269.7312 13.21827857171478
ONEWEB-0545             
1 54647U 22166F   26167.73592353 -.00001937  00000+0 -47232-2 0  9993
2 54647  87.9255 244.0716 0001972  82.7364 277.3994 13.21811810171441
ONEWEB-0580             
1 54648U 22166G   26167.71067359  .00000008  00000+0 -11504-4 0  9997
2 54648  87.9255 244.0765 0002259  89.1497 270.9896 13.21827633171487
ONEWEB-0582             
1 54649U 22166H   26167.75274350 -.00000068  00000+0 -19608-3 0  9992
2 54649  87.9255 244.0605 0002170  87.1116 273.0266 13.21826448171465
ONEWEB-0583             
1 54650U 22166J   26167.68881102  .00000056  00000+0  10391-3 0  9990
2 54650  87.9253 244.0965 0002054  95.5685 264.5683 13.21827599171465
ONEWEB-0584             
1 54651U 22166K   26167.70900042  .00000018  00000+0  13028-4 0  9998
2 54651  87.9252 244.0781 0002117  96.1180 264.0195 13.21825413171453
ONEWEB-0585             
1 54652U 22166L   26167.65686292 -.00000033  00000+0 -11022-3 0  9991
2 54652  87.9256 244.0756 0001981 103.2610 256.8745 13.21826430171456
ONEWEB-0586             
1 54653U 22166M   26167.74600201  .00000014  00000+0  19354-5 0  9993
2 54653  87.9254 244.0832 0001973  93.4620 266.6740 13.21824436171461
ONEWEB-0587             
1 54654U 22166N   26167.75609492 -.00000038  00000+0 -12470-3 0  9994
2 54654  87.9265 244.0547 0002030 108.9303 251.2051 13.21824268171628
ONEWEB-0589             
1 54655U 22166P   26167.74263914 -.00000017  00000+0 -71704-4 0  9992
2 54655  87.9251 244.0697 0002399  78.4700 281.6703 13.21824458171486
ONEWEB-0590             
1 54656U 22166Q   26167.69204516  .00000024  00000+0  27549-4 0  9994
2 54656  87.9263 244.0699 0002510 100.3057 259.8360 13.21827068171461
ONEWEB-0591             
1 54657U 22166R   26167.70396609  .00000093  00000+0  19406-3 0  9990
2 54657  87.9253 244.0824 0002109  98.5259 261.6114 13.21826622171493
ONEWEB-0592             
1 54658U 22166S   26167.70731625  .00000045  00000+0  77049-4 0  9997
2 54658  87.9264 244.0599 0002036  98.8881 261.2483 13.21827717171376
ONEWEB-0593             
1 54659U 22166T   26167.72917654 -.00000010  00000+0 -54733-4 0  9997
2 54659  87.9256 244.0671 0001921  95.1320 265.0033 13.21824627171481
ONEWEB-0594             
1 54660U 22166U   26167.74937833 -.00000017  00000+0 -71501-4 0  9991
2 54660  87.9251 244.0794 0001902 102.8140 257.3207 13.21828102171501
ONEWEB-0595             
1 54661U 22166V   26167.65012014  .00000011  00000+0 -53368-5 0  9992
2 54661  87.9263 244.0797 0002108 105.3865 254.7502 13.21827235171469
ONEWEB-0596             
1 54662U 22166W   26167.70059632  .00000094  00000+0  19652-3 0  9992
2 54662  87.9256 244.0814 0002082 101.7022 258.4346 13.21826755171472
ONEWEB-0597             
1 54663U 22166X   26167.68209229  .00000039  00000+0  63961-4 0  9991
2 54663  87.9253 244.0880 0002017  95.2662 264.8702 13.21826432171477
ONEWEB-0600             
1 54664U 22166Y   26167.73927304 -.00000025  00000+0 -93248-4 0  9997
2 54664  87.9253 244.0680 0001809  96.3295 263.8045 13.21824341171452
ONEWEB-0601             
1 54665U 22166Z   26167.73086854 -.00000047  00000+0 -14653-3 0  9990
2 54665  87.9253 244.0858 0002088  91.8607 268.2766 13.21825557171647
ONEWEB-0602             
1 54666U 22166AA  26167.69638455  .00000075  00000+0  14997-3 0  9996
2 54666  87.9253 244.0988 0001776  95.2784 264.8553 13.21826510171487
ONEWEB-0603             
1 54667U 22166AB  26167.70228100  .00000072  00000+0  14208-3 0  9993
2 54667  87.9263 244.0545 0001987  96.1199 264.0161 13.21826633171418
ONEWEB-0604             
1 54668U 22166AC  26167.69049167  .00000066  00000+0  12905-3 0  9991
2 54668  87.9263 244.0721 0002019 101.5575 258.5786 13.21827643171379
