OBJECT_NAME,OBJECT_ID,EPOCH,MEAN_MOTION,ECCENTRICITY,INCLINATION,RA_OF_ASC_NODE,ARG_OF_PERICENTER,MEAN_ANOMALY,EPHEMERIS_TYPE,CLASSIFICATION_TYPE,NORAD_CAT_ID,ELEMENT_SET_NO,REV_AT_EPOCH,BSTAR,MEAN_MOTION_DOT,MEAN_MOTION_DDOT
ONEWEB-0529,2022-138AJ,2026-06-16T17:49:43.199040,13.19723576,.0001638,87.9170,305.0626,102.8223,257.3093,0,U,54145,999,17676,-.31175E-3,-.112E-5,0
ONEWEB-0531,2022-138AK,2026-06-16T20:30:07.282080,13.20771586,.0002826,87.9192,274.5015,103.8403,256.3045,0,U,54146,999,17926,.19435E-3,.92E-6,0
ONEWEB-0535,2022-138AL,2026-06-16T20:26:39.338016,13.19725117,.0002188,87.9178,305.0248,94.9979,265.1404,0,U,54147,999,17679,-.91504E-4,-.24E-6,0
ONEWEB-0536,2022-138AM,2026-06-16T20:10:42.864096,13.20770910,.0002963,87.9182,274.5265,107.3705,252.7753,0,U,54148,999,17925,-.60336E-4,-.12E-6,0
ONEWEB-0527,2022-166A,2026-06-16T17:20:19.317984,13.21823274,.000197,87.9253,244.0899,100.0517,260.0840,0,U,54642,999,17147,.19333E-4,.21E-6,0
ONEWEB-0528,2022-166B,2026-06-16T17:21:32.092704,13.21823973,.0001852,87.9256,244.0920,103.5274,256.6067,0,U,54643,999,17148,-.21503E-4,.4E-7,0
ONEWEB-0539,2022-166C,2026-06-16T16:27:03.420000,13.21827051,.000195,87.9259,244.0710,92.6256,267.5101,0,U,54644,999,17147,.14858E-3,.74E-6,0
ONEWEB-0540,2022-166D,2026-06-16T16:36:56.345184,13.21827142,.0002041,87.9255,244.1001,95.4522,264.6845,0,U,54645,999,17146,.6888E-4,.41E-6,0
ONEWEB-0542,2022-166E,2026-06-16T16:41:34.573920,13.21827857,.0002001,87.9263,244.0677,90.4051,269.7312,0,U,54646,999,17147,.15775E-3,.78E-6,0
ONEWEB-0545,2022-166F,2026-06-16T17:39:43.792992,13.21811810,.0001972,87.9255,244.0716,82.7364,277.3994,0,U,54647,999,17144,-.47232E-2,-.1937E-4,0
ONEWEB-0580,2022-166G,2026-06-16T17:03:22.198176,13.21827633,.0002259,87.9255,244.0765,89.1497,270.9896,0,U,54648,999,17148,-.11504E-4,.8E-7,0
ONEWEB-0582,2022-166H,2026-06-16T18:03:57.038400,13.21826448,.000217,87.9255,244.0605,87.1116,273.0266,0,U,54649,999,17146,-.19608E-3,-.68E-6,0
ONEWEB-0583,2022-166J,2026-06-16T16:31:53.272128,13.21827599,.0002054,87.9253,244.0965,95.5685,264.5683,0,U,54650,999,17146,.10391E-3,.56E-6,0
ONEWEB-0584,2022-166K,2026-06-16T17:00:57.636288,13.21825413,.0002117,87.9252,244.0781,96.1180,264.0195,0,U,54651,999,17145,.13028E-4,.18E-6,0
ONEWEB-0585,2022-166L,2026-06-16T15:45:52.956288,13.21826430,.0001981,87.9256,244.0756,103.2610,256.8745,0,U,54652,999,17145,-.11022E-3,-.33E-6,0
ONEWEB-0586,2022-166M,2026-06-16T17:54:14.573664,13.21824436,.0001973,87.9254,244.0832,93.4620,266.6740,0,U,54653,999,17146,.19354E-5,.14E-6,0
ONEWEB-0587,2022-166N,2026-06-16T18:08:46.601088,13.21824268,.000203,87.9265,244.0547,108.9303,251.2051,0,U,54654,999,17162,-.1247E-3,-.38E-6,0
ONEWEB-0589,2022-166P,2026-06-16T17:49:24.021696,13.21824458,.0002399,87.9251,244.0697,78.4700,281.6703,0,U,54655,999,17148,-.71704E-4,-.17E-6,0
ONEWEB-0590,2022-166Q,2026-06-16T16:36:32.701824,13.21827068,.000251,87.9263,244.0699,100.3057,259.8360,0,U,54656,999,17146,.27549E-4,.24E-6,0
ONEWEB-0591,2022-166R,2026-06-16T16:53:42.670176,13.21826622,.0002109,87.9253,244.0824,98.5259,261.6114,0,U,54657,999,17149,.19406E-3,.93E-6,0
ONEWEB-0592,2022-166S,2026-06-16T16:58:32.124000,13.21827717,.0002036,87.9264,244.0599,98.8881,261.2483,0,U,54658,999,17137,.77049E-4,.45E-6,0
ONEWEB-0593,2022-166T,2026-06-16T17:30:00.853056,13.21824627,.0001921,87.9256,244.0671,95.1320,265.0033,0,U,54659,999,17148,-.54733E-4,-.1E-6,0
ONEWEB-0594,2022-166U,2026-06-16T17:59:06.287712,13.21828102,.0001902,87.9251,244.0794,102.8140,257.3207,0,U,54660,999,17150,-.71501E-4,-.17E-6,0
ONEWEB-0595,2022-166V,2026-06-16T15:36:10.380096,13.21827235,.0002108,87.9263,244.0797,105.3865,254.7502,0,U,54661,999,17146,-.53368E-5,.11E-6,0
ONEWEB-0596,2022-166W,2026-06-16T16:48:51.522048,13.21826755,.0002082,87.9256,244.0814,101.7022,258.4346,0,U,54662,999,17147,.19652E-3,.94E-6,0
ONEWEB-0597,2022-166X,2026-06-16T16:22:12.773856,13.21826432,.0002017,87.9253,244.0880,95.2662,264.8702,0,U,54663,999,17147,.63961E-4,.39E-6,0
ONEWEB-0600,2022-166Y,2026-06-16T17:44:33.190656,13.21824341,.0001809,87.9253,244.0680,96.3295,263.8045,0,U,54664,999,17145,-.93248E-4,-.25E-6,0
ONEWEB-0601,2022-166Z,2026-06-16T17:32:27.041856,13.21825557,.0002088,87.9253,244.0858,91.8607,268.2766,0,U,54665,999,17164,-.14653E-3,-.47E-6,0
ONEWEB-0602,2022-166AA,2026-06-16T16:42:47.625120,13.21826510,.0001776,87.9253,244.0988,95.2784,264.8553,0,U,54666,999,17148,.14997E-3,.75E-6,0
ONEWEB-0603,2022-166AB,2026-06-16T16:51:17.078400,13.21826633,.0001987,87.9263,244.0545,96.1199,264.0161,0,U,54667,999,17141,.14208E-3,.72E-6,0
ONEWEB-0604,2022-166AC,2026-06-16T16:34:18.480288,13.21827643,.0002019,87.9263,244.0721,101.5575,258.5786,0,U,54668,999,17137,.12905E-3,.66E-6,0
